NORAD_CAT_ID,OBJECT_NAME,OBJECT_TYPE,EPOCH,MEAN_MOTION,ECCENTRICITY,INCLINATION,RA_OF_ASC_NODE,ARG_OF_PERICENTER,MEAN_ANOMALY,BSTAR,MEAN_MOTION_DOT,MEAN_MOTION_DDOT,TLE_LINE0,TLE_LINE1,TLE_LINE2,SEMIMAJOR_AXIS,PERIOD,APOGEE,PERIGEE,DECAYED
54097.0,STARLINK-5197,PAYLOAD,2023-09-04 14:00:01,15.07189172,0.0001033,53.215,106.0565,105.0449,288.8669,0.0026637,0.00040478,0.0,0 STARLINK-5197,1 54097U 22136AY  23247.58334491  .00040478  00000-0  26637-2 0  9993,2 54097  53.2150 106.0565 0001033 105.0449 288.8669 15.07189172  5818,6922.931,95.542,545.511,544.081,0.0
54097.0,STARLINK-5197,PAYLOAD,2023-09-04 22:00:00,15.07215229,0.0001012,53.2149,104.5656,90.0595,313.4805,-0.0020675,-0.00031624,0.0,0 STARLINK-5197,1 54097U 22136AY  23247.91667824 -.00031624  00000-0 -20675-2 0  9990,2 54097  53.2149 104.5656 0001012  90.0595 313.4805 15.07215229 49405,6922.851,95.54,545.417,544.016,0.0
54097.0,STARLINK-5197,PAYLOAD,2023-09-05 14:00:01,15.07196212,0.0001006,53.2148,101.5786,101.3869,321.4069,0.0019662,0.00029765,0.0,0 STARLINK-5197,1 54097U 22136AY  23248.58334491  .00029765  00000-0  19662-2 0  9990,2 54097  53.2148 101.5786 0001006 101.3869 321.4069 15.07196212 49500,6922.909,95.542,545.471,544.078,0.0
54097.0,STARLINK-5197,PAYLOAD,2023-09-06 06:00:00,15.07216926,9.91e-05,53.2146,98.5941,89.1349,352.9241,-0.0013686,-0.00021061,0.0,0 STARLINK-5197,1 54097U 22136AY  23249.25001157 -.00021061  00000-0 -13686-2 0  9998,2 54097  53.2146  98.5941 0000991  89.1349 352.9241 15.07216926 49601,6922.846,95.54,545.397,544.025,0.0
54097.0,STARLINK-5197,PAYLOAD,2023-09-06 14:00:01,15.07206417,0.0001059,53.2147,97.1007,96.5126,355.1752,0.0014506,0.00021867,0.0,0 STARLINK-5197,1 54097U 22136AY  23249.58334491  .00021867  00000-0  14506-2 0  9998,2 54097  53.2147  97.1007 0001059  96.5126 355.1752 15.07206417  5766,6922.878,95.541,545.476,544.01,0.0
54097.0,STARLINK-5197,PAYLOAD,2023-09-06 22:00:00,15.07211453,0.0001077,53.2148,95.6099,79.8768,21.456,-0.0019189,-0.00029377,0.0,0 STARLINK-5197,1 54097U 22136AY  23249.91667824 -.00029377  00000-0 -19189-2 0  9992,2 54097  53.2148  95.6099 0001077  79.8768  21.4560 15.07211453 49705,6922.863,95.541,545.473,543.982,0.0
54097.0,STARLINK-5197,PAYLOAD,2023-09-06 23:08:39,15.07210806,9.45e-05,53.2169,95.3946,84.7616,275.3483,5.441e-05,5.45e-06,0.0,0 STARLINK-5197,1 54097U 22136AY  23249.96434186  .00000545  00000-0  54410-4 0  9992,2 54097  53.2169  95.3946 0000945  84.7616 275.3483 15.07210806 49712,6922.865,95.541,545.384,544.075,0.0
54097.0,STARLINK-5197,PAYLOAD,2023-09-07 13:28:03,15.07205993,0.000136,53.2168,92.7224,97.4529,262.6617,1.1702e-05,-1.05e-06,0.0,0 STARLINK-5197,1 54097U 22136AY  23250.56115273 -.00000105  00000-0  11702-4 0  9993,2 54097  53.2168  92.7224 0001360  97.4529 262.6617 15.07205993 49334,6922.879,95.541,545.686,543.803,0.0
54097.0,STARLINK-5197,PAYLOAD,2023-09-08 02:11:45,15.07355684,0.000172,53.2174,90.3458,89.0166,271.1023,0.001209,0.00018243,0.0,0 STARLINK-5197,1 54097U 22136AY  23251.09149503  .00018243  00000-0  12090-2 0  9995,2 54097  53.2174  90.3458 0001720  89.0166 271.1023 15.07355684 49887,6922.421,95.532,545.477,543.095,0.0
54097.0,STARLINK-5197,PAYLOAD,2023-09-09 19:32:22,15.08244656,0.0001201,53.2165,82.6175,68.1991,291.9129,0.0059661,0.00094387,0.0,0 STARLINK-5197,1 54097U 22136AY  23252.81415075  .00094387  00000-0  59661-2 0  9994,2 54097  53.2165  82.6175 0001201  68.1991 291.9129 15.08244656 50140,6919.701,95.475,542.397,540.735,0.0
54097.0,STARLINK-5197,PAYLOAD,2023-09-10 06:00:00,15.08842418,9.17e-05,53.2159,80.662,78.4403,129.7182,-0.00031823,-5.349e-05,0.0,0 STARLINK-5197,1 54097U 22136AY  23253.25001157 -.00005349  00000-0 -31823-3 0  9998,2 54097  53.2159  80.6620 0000917  78.4403 129.7182 15.08842418 50216,6917.873,95.437,540.372,539.104,0.0
54097.0,STARLINK-5197,PAYLOAD,2023-09-10 14:00:01,15.08854876,9.57e-05,53.2161,79.1656,87.5662,132.1743,-0.00044242,-7.325e-05,0.0,0 STARLINK-5197,1 54097U 22136AY  23253.58334491 -.00007325  00000-0 -44242-3 0  9999,2 54097  53.2161  79.1656 0000957  87.5662 132.1743 15.08854876  5765,6917.835,95.437,540.362,539.038,0.0
54097.0,STARLINK-5197,PAYLOAD,2023-09-11 14:00:01,15.08856391,9.18e-05,53.2159,74.6764,93.9161,160.6025,-0.0010553,-0.00017051,0.0,0 STARLINK-5197,1 54097U 22136AY  23254.58334491 -.00017051  00000-0 -10553-2 0  9994,2 54097  53.2159  74.6764 0000918  93.9161 160.6025 15.08856391 50419,6917.83,95.437,540.33,539.06,0.0
54097.0,STARLINK-5197,PAYLOAD,2023-09-12 14:00:01,15.08860688,9.79e-05,53.2154,70.1871,93.616,195.7418,-0.001333,-0.00021451,0.0,0 STARLINK-5197,1 54097U 22136AY  23255.58335648 -.00021451  00000-0 -13330-2 0  9995,2 54097  53.2154  70.1871 0000979  93.6160 195.7418 15.08860688 50562,6917.817,95.436,540.359,539.005,0.0
54097.0,STARLINK-5197,PAYLOAD,2023-09-12 22:00:00,15.08818998,9.72e-05,53.2151,68.692,81.7297,219.188,0.0015544,0.00024523,0.0,0 STARLINK-5197,1 54097U 22136AY  23255.91667824  .00024523  00000-0  15544-2 0  9996,2 54097  53.2151  68.6920 0000972  81.7297 219.1880 15.08818998  5772,6917.945,95.439,540.482,539.137,0.0
54097.0,STARLINK-5197,PAYLOAD,2023-09-13 10:58:47,15.08838456,9.88e-05,53.2176,66.2628,79.1175,280.9928,6.2147e-05,7.01e-06,0.0,0 STARLINK-5197,1 54097U 22136AY  23256.45749151  .00000701  00000-0  62147-4 0  9995,2 54097  53.2176  66.2628 0000988  79.1175 280.9928 15.08838456 50692,6917.885,95.438,540.434,539.067,0.0
54097.0,STARLINK-5197,PAYLOAD,2023-09-13 20:31:05,15.08850661,9.08e-05,53.2174,64.4779,84.2046,275.9049,5.7031e-05,6.2e-06,0.0,0 STARLINK-5197,1 54097U 22136AY  23256.85492302  .00000620  00000-0  57031-4 0  9998,2 54097  53.2174  64.4779 0000908  84.2046 275.9049 15.08850661 50288,6917.848,95.437,540.341,539.085,0.0
54097.0,STARLINK-5197,PAYLOAD,2023-09-14 10:49:35,15.08822561,6.05e-05,53.2182,61.8013,79.3775,280.7285,-4.0763e-05,-9.36e-06,0.0,0 STARLINK-5197,1 54097U 22136AY  23257.45110489 -.00000936  00000-0 -40763-4 0  9994,2 54097  53.2182  61.8013 0000605  79.3775 280.7285 15.08822561 50843,6917.934,95.439,540.217,539.38,0.0
54097.0,STARLINK-5197,PAYLOAD,2023-09-14 18:46:31,15.08830667,9.67e-05,53.2177,60.316,72.3848,287.7249,-9.2837e-05,-1.765e-05,0.0,0 STARLINK-5197,1 54097U 22136AY  23257.78230547 -.00001765  00000-0 -92837-4 0  9998,2 54097  53.2177  60.3160 0000967  72.3848 287.7249 15.08830667 50426,6917.909,95.438,540.443,539.105,0.0
54097.0,STARLINK-5197,PAYLOAD,2023-09-15 10:40:22,15.08838623,9.79e-05,53.218,57.342,67.4473,292.6622,-1.2568e-05,-4.88e-06,0.0,0 STARLINK-5197,1 54097U 22136AY  23258.44469936 -.00000488  00000-0 -12568-4 0  9992,2 54097  53.2180  57.3420 0000979  67.4473 292.6622 15.08838623 50999,6917.885,95.438,540.427,539.072,0.0
54097.0,STARLINK-5197,PAYLOAD,2023-09-15 17:01:53,15.08845552,9.95e-05,53.2181,56.1528,70.3421,289.7679,4.4454e-05,4.2e-06,0.0,0 STARLINK-5197,1 54097U 22136AY  23258.70965229  .00000420  00000-0  44454-4 0  9990,2 54097  53.2181  56.1528 0000995  70.3421 289.7679 15.08845552 51034,6917.863,95.437,540.417,539.04,0.0
54097.0,STARLINK-5197,PAYLOAD,2023-09-16 10:31:08,15.08834352,0.0001119,53.2182,52.8819,72.5398,287.5717,8.3806e-05,1.046e-05,0.0,0 STARLINK-5197,1 54097U 22136AY  23259.43829817  .00001046  00000-0  83806-4 0  9992,2 54097  53.2182  52.8819 0001119  72.5398 287.5717 15.08834352 51144,6917.898,95.438,540.537,538.989,0.0
54097.0,STARLINK-5197,PAYLOAD,2023-09-16 13:41:55,15.08831516,0.0001069,53.2181,52.2876,64.8064,295.3039,5.3651e-05,5.66e-06,0.0,0 STARLINK-5197,1 54097U 22136AY  23259.57078117  .00000566  00000-0  53651-4 0  9997,2 54097  53.2181  52.2876 0001069  64.8064 295.3039 15.08831516 50690,6917.906,95.438,540.511,539.032,0.0
54097.0,STARLINK-5197,PAYLOAD,2023-09-17 10:21:56,15.08841593,0.0001,53.2188,48.4219,68.6375,291.4724,-5.3847e-05,-1.145e-05,0.0,0 STARLINK-5197,1 54097U 22136AY  23260.43190045 -.00001145  00000-0 -53847-4 0  9992,2 54097  53.2188  48.4219 0001000  68.6375 291.4724 15.08841593 50826,6917.876,95.437,540.432,539.049,0.0
54097.0,STARLINK-5197,PAYLOAD,2023-09-17 16:43:28,15.08845277,9.11e-05,53.2181,47.2303,69.0193,291.0896,-1.416e-05,-5.13e-06,0.0,0 STARLINK-5197,1 54097U 22136AY  23260.69685584 -.00000513  00000-0 -14160-4 0  9990,2 54097  53.2181  47.2303 0000911  69.0193 291.0896 15.08845277 51339,6917.864,95.437,540.359,539.099,0.0
54097.0,STARLINK-5197,PAYLOAD,2023-09-18 10:12:43,15.08832979,0.0001313,53.2188,43.9617,80.8795,279.2346,-2.5629e-05,-6.96e-06,0.0,0 STARLINK-5197,1 54097U 22136AY  23261.42550456 -.00000696  00000-0 -25629-4 0  9995,2 54097  53.2188  43.9617 0001313  80.8795 279.2346 15.08832979 51448,6917.902,95.438,540.675,538.859,0.0
54097.0,STARLINK-5197,PAYLOAD,2023-09-18 13:23:29,15.08833655,0.0001215,53.219,43.3679,99.3668,260.7462,-2.5017e-05,-6.86e-06,0.0,0 STARLINK-5197,1 54097U 22136AY  23261.55798426 -.00000686  00000-0 -25017-4 0  9990,2 54097  53.2190  43.3679 0001215  99.3668 260.7462 15.08833655 50993,6917.9,95.438,540.605,538.924,0.0
54097.0,STARLINK-5197,PAYLOAD,2023-09-18 19:45:01,15.0884223,0.0001049,53.2182,42.1749,78.7204,281.3906,1.577e-05,-3.7e-07,0.0,0 STARLINK-5197,1 54097U 22136AY  23261.82293823 -.00000037  00000-0  15770-4 0  9995,2 54097  53.2182  42.1749 0001049  78.7204 281.3906 15.08842230 51038,6917.874,95.437,540.464,539.013,0.0
54097.0,STARLINK-5197,PAYLOAD,2023-09-19 02:06:34,15.08839624,9.69e-05,53.2181,40.9851,64.6884,295.4208,2.5039e-09,-2.88e-06,0.0,0 STARLINK-5197,1 54097U 22136AY  23262.08789941 -.00000288  00000-0  25039-8 0  9996,2 54097  53.2181  40.9851 0000969  64.6884 295.4208 15.08839624 51545,6917.882,95.438,540.417,539.076,0.0
54097.0,STARLINK-5197,PAYLOAD,2023-09-19 16:25:01,15.08853249,0.0001041,53.2191,38.3131,91.708,268.4032,0.00010949,1.456e-05,0.0,0 STARLINK-5197,1 54097U 22136AY  23262.68404589  .00001456  00000-0  10949-3 0  9990,2 54097  53.2191  38.3131 0001041  91.7080 268.4032 15.08853249 51633,6917.84,95.437,540.425,538.985,0.0
